CASSIOPE-1
1 39265U 13055A   25065.12079679  .00042625  00000-0  72176-3 0  9993
2 39265  80.9414 259.6904 0418072 161.0591 200.6725 14.90948461597114
D-STAR ONE PHOENIX
1 43188U 18014J   25064.68400615  .00009163  00000-0  56420-3 0  9994
2 43188  97.5713 328.7298 0009751 180.0820 180.0409 15.10179733387892
S-NET D
1 43186U 18014G   25064.68331003  .00009169  00000-0  56470-3 0  9997
2 43186  97.5701 328.6243 0008996 183.5085 176.6083 15.10176125387898
TEN-KOH
1 43677U 18084G   25064.88495403  .00005929  00000-0  48559-3 0  9995
2 43677  98.0928 233.3267 0009929 222.1038 137.9422 14.99665311345890
STARS-AO
1 43679U 18084J   25064.55565686  .00011145  00000-0  70618-3 0  9990
2 43679  98.0738 246.3377 0002195 330.4904  29.6199 15.09133318346595
KAIDUN-1
1 41915U 17002C   25065.14427749  .00044555  00000-0  80504-3 0  9999
2 41915  97.1727  93.7554 0004453  41.0178 319.1408 15.49574905451145
CAS-4B (ZHUHAI-1 02)
1 42759U 17034B   25065.12903298  .00048793  00000-0  85297-3 0  9999
2 42759  43.0102 165.2432 0017648 339.8529  20.1633 15.49718870427724
CAS-4A (ZHUHAI-1 01)
1 42761U 17034D   25065.15245025  .00050827  00000-0  86991-3 0  9995
2 42761  43.0138 162.9757 0018826 346.1746  13.8597 15.50276779427740
EAGLESAT-1
1 43018U 17073F   25065.14596641  .00052151  00000-0  13731-2 0  9999
2 43018  97.5558 315.9906 0116269  76.3847 285.0311 15.31680712395821
LUOJIA-1 01
1 43485U 18048B   25065.18584569  .00003577  00000-0  43164-3 0  9992
2 43485  97.8481 145.6721 0009117 210.6598 149.4084 14.84394218364690
DIWATA-2B (PO-101)
1 43678U 18084H   25065.13639716  .00004207  00000-0  36615-3 0  9990
2 43678  98.0951 237.6944 0008111 240.9449 119.0960 14.97496748346097
ESHAIL-2
1 43700U 18090A   25064.88230833  .00000136  00000-0  00000-0 0  9994
2 43700   0.0183 234.7474 0001218 122.7299 149.7874  1.00270912 22986
K2SAT
1 43761U 18099D   25064.66006486  .00003994  00000-0  29752-3 0  9994
2 43761  97.4849 116.7348 0013890 137.5385 222.6918 15.03395316341630
AISTECHSAT-2
1 43768U 18099L   25064.68479574  .00009088  00000-0  58338-3 0  9997
2 43768  97.4974 118.1761 0006771 113.2712 246.9230 15.08671215341474
SNUSAT-2
1 43782U 18099AA  25064.68242704  .00012624  00000-0  73191-3 0  9990
2 43782  97.4744 121.4348 0013933 123.5923 236.6640 15.12230049341998
ITASAT-1
1 43786U 18099AE  25064.72372148  .00009765  00000-0  58825-3 0  9994
2 43786  97.4704 121.2460 0015476 172.4540 187.6926 15.10894165341976
IRVINE02
1 43789U 18099AH  25064.72852964  .00039019  00000-0  13627-2 0  9991
2 43789  97.4784 131.5519 0011419 124.7948 235.4369 15.29411490342319
EAGLET-1
1 43790U 18099AJ  25064.69854752  .00007848  00000-0  51756-3 0  9997
2 43790  97.4905 121.4539 0013167 154.0173 206.1718 15.07666434341615
ESEO
1 43792U 18099AL  25064.69204420  .00003807  00000-0  29475-3 0  9994
2 43792  97.4587 115.9417 0011619 125.3960 234.8352 15.01965032341422
CSIM-FD
1 43793U 18099AM  25065.15267025  .00082718  00000-0  16946-2 0  9993
2 43793  97.4964 137.9464 0006039 120.1819 240.0029 15.45764943342779
HIBER-2
1 43774U 18099S   25065.16677617  .00035496  00000-0  12361-2 0  9993
2 43774  97.5016 132.7906 0007142 119.5350 240.6603 15.29565082342554
MINXSS-2
1 43758U 18099A   25064.71565403  .00022684  00000-0  10168-2 0  9992
2 43758  97.5142 130.6719 0013950 132.2538 227.9883 15.21149366342372
FOX-1CLIFF (AO-95)
1 43770U 18099N   25064.68069234  .00014467  00000-0  78937-3 0  9992
2 43770  97.5056 123.9328 0011786 179.1325 180.9929 15.14399756342023
MOVE-II
1 43780U 18099Y   25065.16882613  .00076179  00000-0  15802-2 0  9990
2 43780  97.4785 135.9309 0004244 149.4805 210.6692 15.45435837342931
CORVUS-BC4
1 43767U 18099K   25064.71700571  .00006595  00000-0  44463-3 0  9998
2 43767  97.4735 116.2238 0009971 163.5460 196.6093 15.06942121341719
CZ-4B R/B
1 43656U 18081B   25064.60905767  .00000282  00000-0  10132-3 0  9991
2 43656  99.4120 299.5260 0205563 175.4534 184.8578 14.31569372332251
COSMOS 2504 [i]
1 40555U 15020D   25065.17357594  .00000905  00000-0  32668-3 0  9998
2 40555  82.5145 232.8821 0610742 106.0730 260.8523 13.60940126486522
MERIDIAN-4
1 37398U 11018A   25063.74298060 -.00000404  00000-0  00000-0 0  9992
2 37398  62.1588 148.5281 7304280 259.9605  18.2037  2.00670596101346
MERIDIAN-6
1 38995U 12063A   25064.06798590  .00000522  00000-0  00000-0 0  9996
2 38995  64.8486  59.0696 7214080 232.8280  37.7238  2.00571301 90091
MERIDIAN-7
1 40296U 14069A   25064.60085600  .00000182  00000-0  00000+0 0  9993
2 40296  63.5011 264.4416 6879876 272.8304  16.8317  2.00593829 75829
METOP-C
1 43689U 18087A   25065.12730188  .00000182  00000-0  10309-3 0  9999
2 43689  98.6863 126.8507 0002202  80.7975 279.3452 14.21480681328339
FENGYUN-3B
1 37214U 10059A   25065.19771019  .00000137  00000-0  94487-4 0  9992
2 37214  99.0269 102.6035 0023075  73.1867   5.1988 14.14688570741298
FENGYUN-3C
1 39260U 13052A   25065.22859854  .00000259  00000-0  15338-3 0  9991
2 39260  98.4490  57.1124 0013599 293.1716  66.8025 14.15573781592423
EWS-G1 (GOES-13)
1 29155U 06018A   25064.87819649 -.00000093  00000-0  00000-0 0  9999
2 29155   3.3109  82.1377 0065989 261.5034 156.1815  0.98831387 38629
FENGYUN-2H
1 43491U 18050A   25064.92752760 -.00000135  00000-0  00000-0 0  9990
2 43491   1.8222  84.5816 0001107 177.8014 314.3736  1.00275596 24746
FENGYUN-2G
1 40367U 14090A   25064.94432367 -.00000307  00000-0  00000+0 0  9999
2 40367   4.4479  78.4898 0001044 132.4640  32.2432  1.00262991 37346
INMARSAT 4-F1
1 28628U 05009A   25064.71213557  .00000026  00000-0  00000-0 0  9996
2 28628   4.5703  42.0228 0002279 320.0284 236.0940  1.00272486 72973
INMARSAT 4-F2
1 28899U 05044A   25064.27197534 -.00000267  00000-0  00000-0 0  9990
2 28899   4.4936  43.2970 0002264 306.7400  54.6176  1.00272302 70815
INMARSAT 4-F3
1 33278U 08039A   25065.01852750 -.00000148  00000-0  00000+0 0  9992
2 33278   3.9077  29.3150 0002775 322.4783  80.8745  1.00272699 60577
INMARSAT 4A-F4 (ALPHASAT)
1 39215U 13038A   25064.88251080  .00000126  00000-0  00000-0 0  9993
2 39215   2.9259   5.2039 0001723 345.6545 155.5663  1.00270110 39323
ASTROCAST
1 43798U 18099AS  25064.76604359  .00021388  00000-0  87841-3 0  9998
2 43798  97.4962 132.0021 0009400  95.7627 264.4682 15.24183370342553
JY1SAT (JO-97)
1 43803U 18099AX  25064.69397847  .00017227  00000-0  86367-3 0  9997
2 43803  97.4805 124.7744 0009186 119.0822 241.1332 15.17375973342215
SUOMI-100
1 43804U 18099AY  25064.70114183  .00015638  00000-0  82676-3 0  9993
2 43804  97.4868 124.3145 0014353 120.6615 239.6034 15.15471806342161
GEO-KOMPSAT-2A
1 43823U 18100A   25064.59141979 -.00000352  00000-0  00000-0 0  9993
2 43823   0.0355   8.6353 0001233  31.3412 104.7571  1.00271460 22935
UWE-4
1 43880U 18111E   25064.54704066  .00021546  00000-0  95851-3 0  9993
2 43880  97.5954 336.2281 0013142 175.5397 184.5958 15.21431264339001
D-STAR ONE SPARROW
1 43881U 18111F   25064.70590452  .00029180  00000-0  11592-2 0  9995
2 43881  97.6140 339.8561 0006566 195.0490 165.0553 15.25258746339149
METEOR M2-2
1 44387U 19038A   25065.16168576  .00000239  00000-0  12346-3 0  9998
2 44387  98.8650  41.9545 0000454 351.4174   8.6996 14.24153961294672
MOMENTUS-X1
1 44408U 19038Y   25064.94395699  .00022130  00000-0  57094-3 0  9998
2 44408  97.7249  72.2620 0011320 273.4449  86.5500 15.39123333313979
MERIDIAN-8
1 44453U 19046A   25064.66614414  .00000129  00000-0  00000-0 0  9991
2 44453  62.7776 108.2566 6885128 273.6679  16.5542  2.00600665 40948
TAURUS-1
1 44530U 19059C   25065.10076268  .00010596  00000-0  20522-2 0  9992
2 44530  98.5933 200.1760 0009151 324.1207  35.9379 14.63463700289960
GAOFEN 12-01
1 44819U 19082A   25065.16942611  .00000873  00000-0  12156-3 0  9990
2 44819  97.8187  78.7845 0004152  89.8437 270.3251 14.80205424284844
DUCHIFAT-3
1 44854U 19089C   25064.84349892  .00048071  00000-0  13318-2 0  9994
2 44854  36.9466 239.4846 0005435 103.6626 256.4732 15.35972535288235
CAS-6 (TO-108)
1 44881U 19093C   25065.17707311  .00001704  00000-0  20463-3 0  9992
2 44881  97.8000 142.8148 0013954 179.3833 180.7402 14.85227470281918
ELEKTRO-L3
1 44903U 19095A   25064.92431370 -.00000105  00000-0  00000-0 0  9997
2 44903   0.0466  85.3683 0001750 238.8795 248.3763  1.00271575 19018
DOSAAF-85 (RS-44)
1 44909U 19096E   25064.70515365  .00000013  00000-0  26565-5 0  9993
2 44909  82.5189 290.9979 0217778 159.5056 201.4954 12.79738837242423
MERIDIAN-9
1 45254U 20015A   25064.89159729 -.00000125  00000-0  00000-0 0  9994
2 45254  65.1373  10.4307 6955115 285.2901  12.6063  2.00623397 36897
ION-MK01
1 46274U 20061C   25064.70436113  .00029611  00000-0  63414-3 0  9994
2 46274  97.2583 132.0866 0002944 204.4693 155.6417 15.44727567250141
UPMSAT-2
1 46276U 20061E   25065.17147347  .00050488  00000-0  75021-3 0  9999
2 46276  97.2573 137.2502 0001143 179.1668 180.9588 15.55028711250570
YARILO-1
1 46490U 20068E   25065.12365408  .02917845  27048-5  14509-2 0  9999
2 46490  97.8200  60.6763 0007081 172.4915 187.6481 16.20839946245435
YARILO-2
1 46491U 20068F   25039.82307463  .09519039  28755-5  10124-2 0  9990
2 46491  97.7749  32.6421 0006725 182.3651 177.7615 16.37592311241495
DEKART
1 46493U 20068H   25065.11636847  .00014353  00000-0  59206-3 0  9997
2 46493  97.8507  41.3385 0014412 124.6068 235.6529 15.24079801244163
NORBY
1 46494U 20068J   25064.87686075  .00019575  00000-0  72005-3 0  9991
2 46494  97.8495  43.0563 0013579 119.4038 240.8557 15.27838408244257
SALSAT (TUBSAT 22)
1 46495U 20068K   25064.87798620  .00012068  00000-0  55543-3 0  9990
2 46495  97.8521  38.6865 0013824 127.3761 232.8734 15.20398190243975
NETSAT-4
1 46504U 20068U   25064.90767610  .00019801  00000-0  76580-3 0  9996
2 46504  97.8382  37.6519 0008822 157.1910 202.9721 15.26224809243936
NETSAT-3
1 46505U 20068V   25065.14536106  .00018108  00000-0  72379-3 0  9999
2 46505  97.8370  37.0492 0007909 166.5071 193.6378 15.25150498243941
